CTC2_L_00077016-03
1 10062U 22861AA  26075.70041667  .00000000  00000+0  00000-0 0  9998
2 10062  70.0000 180.0000 0000000   0.0000   0.0000 15.28598846    14
CTC2_L_00077016-04
1 10063U 26312VP  26075.70041667  .00000000  00000+0  00000-0 0  9994
2 10063  70.0000 180.0000 0000000   0.0000  90.0000 15.28598846    14
CTC2_L_00077017-01
1 10064U 23525DJ  26075.70041667  .00000000  00000+0  00000-0 0  9998
2 10064  70.0000 192.0000 0000000   0.0000 192.0000 15.28598846    11
CTC2_L_00077017-02
1 10065U 24758LE  26075.70041667  .00000000  00000+0  00000-0 0  9998
2 10065  70.0000 192.0000 0000000   0.0000 282.0000 15.28598846    12
CTC2_L_00077017-03
1 10066U 24265BF  26075.70041667  .00000000  00000+0  00000-0 0  9992
2 10066  70.0000 192.0000 0000000   0.0000  12.0000 15.28598846    14
CTC2_L_00077017-04
1 10067U 24539WS  26075.70041667  .00000000  00000+0  00000-0 0  9997
2 10067  70.0000 192.0000 0000000   0.0000 102.0000 15.28598846    15
CTC2_L_00077018-01
1 10068U 23968QK  26075.70041667  .00000000  00000+0  00000-0 0  9993
2 10068  70.0000 204.0000 0000000   0.0000 204.0000 15.28598846    13
CTC2_L_00077018-02
1 10069U 24919QR  26075.70041667  .00000000  00000+0  00000-0 0  9991
2 10069  70.0000 204.0000 0000000   0.0000 294.0000 15.28598846    13
CTC2_L_00077018-03
1 10070U 26045KU  26075.70041667  .00000000  00000+0  00000-0 0  9995
2 10070  70.0000 204.0000 0000000   0.0000  24.0000 15.28598846    16
CTC2_L_00077018-04
1 10071U 23100XL  26075.70041667  .00000000  00000+0  00000-0 0  9995
2 10071  70.0000 204.0000 0000000   0.0000 114.0000 15.28598846    17
CTC2_L_00077019-01
1 10072U 25311PJ  26075.70041667  .00000000  00000+0  00000-0 0  9992
2 10072  70.0000 216.0000 0000000   0.0000 216.0000 15.28598846    14
CTC2_L_00077019-02
1 10073U 22592KF  26075.70041667  .00000000  00000+0  00000-0 0  9991
2 10073  70.0000 216.0000 0000000   0.0000 306.0000 15.28598846    15
CTC2_L_00077019-03
1 10074U 24530KC  26075.70041667  .00000000  00000+0  00000-0 0  9996
2 10074  70.0000 216.0000 0000000   0.0000  36.0000 15.28598846    16
CTC2_L_00077019-04
1 10075U 26122EF  26075.70041667  .00000000  00000+0  00000-0 0  9996
2 10075  70.0000 216.0000 0000000   0.0000 126.0000 15.28598846    17
CTC2_L_00077020-01
1 10076U 25298KE  26075.70041667  .00000000  00000+0  00000-0 0  9990
2 10076  70.0000 228.0000 0000000   0.0000 228.0000 15.28598846    14
CTC2_L_00077020-02
1 10077U 23500IE  26075.70041667  .00000000  00000+0  00000-0 0  9995
2 10077  70.0000 228.0000 0000000   0.0000 318.0000 15.28598846    15
CTC2_L_00077020-03
1 10078U 25376XV  26075.70041667  .00000000  00000+0  00000-0 0  9999
2 10078  70.0000 228.0000 0000000   0.0000  48.0000 15.28598846    16
CTC2_L_00077020-04
1 10079U 24831FS  26075.70041667  .00000000  00000+0  00000-0 0  9995
2 10079  70.0000 228.0000 0000000   0.0000 138.0000 15.28598846    17
CTC2_L_00077021-01
1 10080U 24491BY  26075.70041667  .00000000  00000+0  00000-0 0  9999
2 10080  70.0000 240.0000 0000000   0.0000 240.0000 15.28598846    17
CTC2_L_00077021-02
1 10081U 23939VD  26075.70041667  .00000000  00000+0  00000-0 0  9996
2 10081  70.0000 240.0000 0000000   0.0000 330.0000 15.28598846    18
CTC2_L_00077021-03
1 10082U 26067OG  26075.70041667  .00000000  00000+0  00000-0 0  9992
2 10082  70.0000 240.0000 0000000   0.0000  60.0000 15.28598846    19
CTC2_L_00077021-04
1 10083U 22632WW  26075.70041667  .00000000  00000+0  00000-0 0  9997
2 10083  70.0000 240.0000 0000000   0.0000 150.0000 15.28598846    10
CTC2_L_00077022-01
1 10084U 26126WX  26075.70041667  .00000000  00000+0  00000-0 0  9990
2 10084  70.0000 252.0000 0000000   0.0000 252.0000 15.28598846    17
CTC2_L_00077022-02
1 10085U 25022BD  26075.70041667  .00000000  00000+0  00000-0 0  9995
2 10085  70.0000 252.0000 0000000   0.0000 342.0000 15.28598846    18
CTC2_L_00077022-03
1 10086U 23550PH  26075.70041667  .00000000  00000+0  00000-0 0  9990
2 10086  70.0000 252.0000 0000000   0.0000  72.0000 15.28598846    19
CTC2_L_00077022-04
1 10087U 24783UL  26075.70041667  .00000000  00000+0  00000-0 0  9990
2 10087  70.0000 252.0000 0000000   0.0000 162.0000 15.28598846    10
CTC2_L_00077023-01
1 10088U 24827TH  26075.70041667  .00000000  00000+0  00000-0 0  9990
2 10088  70.0000 264.0000 0000000   0.0000 264.0000 15.28598846    17
CTC2_L_00077023-02
1 10089U 24287IT  26075.70041667  .00000000  00000+0  00000-0 0  9991
2 10089  70.0000 264.0000 0000000   0.0000 354.0000 15.28598846    18
CTC2_L_00077023-03
1 10090U 26085SR  26075.70041667  .00000000  00000+0  00000-0 0  9991
2 10090  70.0000 264.0000 0000000   0.0000  84.0000 15.28598846    10
CTC2_L_00077023-04
1 10091U 26556XD  26075.70041667  .00000000  00000+0  00000-0 0  9995
2 10091  70.0000 264.0000 0000000   0.0000 174.0000 15.28598846    11
CTC2_L_00077024-01
1 10092U 23705VT  26075.70041667  .00000000  00000+0  00000-0 0  9999
2 10092  70.0000 276.0000 0000000   0.0000 276.0000 15.28598846    18
CTC2_L_00077024-02
1 10093U 24674UT  26075.70041667  .00000000  00000+0  00000-0 0  9996
2 10093  70.0000 276.0000 0000000   0.0000   6.0000 15.28598846    10
CTC2_L_00077024-03
1 10094U 25419TM  26075.70041667  .00000000  00000+0  00000-0 0  9995
2 10094  70.0000 276.0000 0000000   0.0000  96.0000 15.28598846    10
CTC2_L_00077024-04
1 10095U 26294DV  26075.70041667  .00000000  00000+0  00000-0 0  9998
2 10095  70.0000 276.0000 0000000   0.0000 186.0000 15.28598846    11
CTC2_L_00077025-01
1 10096U 22845T   26075.70041667  .00000000  00000+0  00000-0 0  9997
2 10096  70.0000 288.0000 0000000   0.0000 288.0000 15.28598846    18
CTC2_L_00077025-02
1 10097U 24630BR  26075.70041667  .00000000  00000+0  00000-0 0  9992
2 10097  70.0000 288.0000 0000000   0.0000  18.0000 15.28598846    10
CTC2_L_00077025-03
1 10098U 25560LR  26075.70041667  .00000000  00000+0  00000-0 0  9996
2 10098  70.0000 288.0000 0000000   0.0000 108.0000 15.28598846    11
CTC2_L_00077025-04
1 10099U 26628JV  26075.70041667  .00000000  00000+0  00000-0 0  9993
2 10099  70.0000 288.0000 0000000   0.0000 198.0000 15.28598846    11
CTC2_L_00077026-01
1 10100U 23733LD  26075.70041667  .00000000  00000+0  00000-0 0  9990
2 10100  70.0000 300.0000 0000000   0.0000 300.0000 15.28598846    14
CTC2_L_00077026-02
1 10101U 26363KI  26075.70041667  .00000000  00000+0  00000-0 0  9993
2 10101  70.0000 300.0000 0000000   0.0000  30.0000 15.28598846    15
CTC2_L_00077026-03
1 10102U 24087OJ  26075.70041667  .00000000  00000+0  00000-0 0  9995
2 10102  70.0000 300.0000 0000000   0.0000 120.0000 15.28598846    16
CTC2_L_00077026-04
1 10103U 26977NK  26075.70041667  .00000000  00000+0  00000-0 0  9996
2 10103  70.0000 300.0000 0000000   0.0000 210.0000 15.28598846    17
CTC2_L_00077027-01
1 10104U 23407BD  26075.70041667  .00000000  00000+0  00000-0 0  9992
2 10104  70.0000 312.0000 0000000   0.0000 312.0000 15.28598846    14
CTC2_L_00077027-02
1 10105U 26806AV  26075.70041667  .00000000  00000+0  00000-0 0  9999
2 10105  70.0000 312.0000 0000000   0.0000  42.0000 15.28598846    15
CTC2_L_00077027-03
1 10106U 26286AH  26075.70041667  .00000000  00000+0  00000-0 0  9992
2 10106  70.0000 312.0000 0000000   0.0000 132.0000 15.28598846    16
CTC2_L_00077027-04
1 10107U 22398ZZ  26075.70041667  .00000000  00000+0  00000-0 0  9993
2 10107  70.0000 312.0000 0000000   0.0000 222.0000 15.28598846    17
CTC2_L_00077028-01
1 10108U 25920ZU  26075.70041667  .00000000  00000+0  00000-0 0  9998
2 10108  70.0000 324.0000 0000000   0.0000 324.0000 15.28598846    14
CTC2_L_00077028-02
1 10109U 25320QH  26075.70041667  .00000000  00000+0  00000-0 0  9993
2 10109  70.0000 324.0000 0000000   0.0000  54.0000 15.28598846    15
CTC2_L_00077028-03
1 10110U 24599AO  26075.70041667  .00000000  00000+0  00000-0 0  9992
2 10110  70.0000 324.0000 0000000   0.0000 144.0000 15.28598846    17
CTC2_L_00077028-04
1 10111U 24931TB  26075.70041667  .00000000  00000+0  00000-0 0  9993
2 10111  70.0000 324.0000 0000000   0.0000 234.0000 15.28598846    18
CTC2_L_00077029-01
1 10112U 22334A   26075.70041667  .00000000  00000+0  00000-0 0  9999
2 10112  70.0000 336.0000 0000000   0.0000 336.0000 15.28598846    15
CTC2_L_00077029-02
1 10113U 22075OL  26075.70041667  .00000000  00000+0  00000-0 0  9992
2 10113  70.0000 336.0000 0000000   0.0000  66.0000 15.28598846    16
CTC2_L_00077029-03
1 10114U 23943F   26075.70041667  .00000000  00000+0  00000-0 0  9998
2 10114  70.0000 336.0000 0000000   0.0000 156.0000 15.28598846    17
CTC2_L_00077029-04
1 10115U 22322OS  26075.70041667  .00000000  00000+0  00000-0 0  9999
2 10115  70.0000 336.0000 0000000   0.0000 246.0000 15.28598846    18
CTC2_L_00077030-01
1 10116U 25930ED  26075.70041667  .00000000  00000+0  00000-0 0  9998
2 10116  70.0000 348.0000 0000000   0.0000 348.0000 15.28598846    15
CTC2_L_00077030-02
1 10117U 25801CL  26075.70041667  .00000000  00000+0  00000-0 0  9996
2 10117  70.0000 348.0000 0000000   0.0000  78.0000 15.28598846    16
CTC2_L_00077030-03
1 10118U 22049KD  26075.70041667  .00000000  00000+0  00000-0 0  9998
2 10118  70.0000 348.0000 0000000   0.0000 168.0000 15.28598846    17
CTC2_L_00077030-04
1 10119U 22328CE  26075.70041667  .00000000  00000+0  00000-0 0  9999
2 10119  70.0000 348.0000 0000000   0.0000 258.0000 15.28598846    18
